STARLINK-36810          
1 67898U 26035V   26065.25002315 -.01158309  41319-3 -28190-2 0  9993
2 67898  97.2718 357.3514 0001001 100.3167 263.2349 15.96285114  3208
STARLINK-36878          
1 67899U 26035W   26065.25002315 -.01163846  41744-3 -28121-2 0  9992
2 67899  97.2717 357.3548 0001123 115.0893 256.7898 15.96419379  3207
STARLINK-36361          
1 67900U 26035X   26065.25002315 -.01172172  42331-3 -28216-2 0  9995
2 67900  97.2715 357.3568 0001104 109.8930 266.4909 15.96489810  3200
STARLINK-36336          
1 67901U 26035Y   26065.25002315 -.01177021  42755-3 -28002-2 0  9997
2 67901  97.2724 357.3630 0001008 108.3066 281.7858 15.96707789  3254
STARLINK-36876          
1 67902U 26035Z   26065.25002315 -.01166513  41984-3 -27972-2 0  9990
2 67902  97.2722 357.3595 0001087 113.4549 266.9451 15.96559985  3205
STARLINK-36257          
1 67903U 26035AA  26065.25002315 -.01167695  42097-3 -27889-2 0  9996
2 67903  97.2721 357.3602 0001001 108.4497 276.1449 15.96634025  3250
STARLINK-36814          
1 67904U 26036A   26065.25002315  .00020839  00000+0  10134-3 0  9993
2 67904  42.9993 270.8897 0002621 258.5452 161.3592 15.81996579  3096
STARLINK-36729          
1 67905U 26036B   26065.25002315 -.00216085  00000+0 -10423-2 0  9996
2 67905  42.9997 270.8781 0002212 291.7484 132.3999 15.82156578  3090
STARLINK-36763          
1 67906U 26036C   26065.25002315  .00006229  00000+0  32106-4 0  9996
2 67906  42.9996 270.8670 0002135 242.9078 185.5355 15.82007387  3097
STARLINK-36742          
1 67907U 26036D   26065.25002315 -.00068459  00000+0 -32472-3 0  9997
2 67907  42.9998 270.8563 0001954 270.7980 161.9125 15.82042288  3092
STARLINK-36827          
1 67908U 26036E   26065.25002315  .00025871  00000+0  12511-3 0  9999
2 67908  42.9994 270.8461 0001945 274.0805 162.9147 15.82000884  3090
STARLINK-36822          
1 67909U 26036F   26065.25002315 -.00016593  00000+0 -76391-4 0  9990
2 67909  42.9995 270.8357 0002091 260.1859 181.0748 15.82020205  3092
