CCSDS_OMM_VERS = 2.0
CREATION_DATE  = 
ORIGINATOR     = 

OBJECT_NAME    = STARLINK-36810
OBJECT_ID      = 2026-035V
CENTER_NAME    = EARTH
REF_FRAME      = TEME
TIME_SYSTEM    = UTC
MEAN_ELEMENT_THEORY = SGP/SGP4

EPOCH          = 2026-03-06T06:00:02.000160
MEAN_MOTION    = 15.96285114
ECCENTRICITY   = .00010013
INCLINATION    = 97.2718
RA_OF_ASC_NODE = 357.3514
ARG_OF_PERICENTER = 100.3167
MEAN_ANOMALY   = 263.2349

EPHEMERIS_TYPE = 0
CLASSIFICATION_TYPE = U
NORAD_CAT_ID   = 67898
ELEMENT_SET_NO = 999
REV_AT_EPOCH   = 320
BSTAR          = -.28190102E-2
MEAN_MOTION_DOT = -.1158309E-1
MEAN_MOTION_DDOT = .41318839E-3

CCSDS_OMM_VERS = 2.0
CREATION_DATE  = 
ORIGINATOR     = 

OBJECT_NAME    = STARLINK-36878
OBJECT_ID      = 2026-035W
CENTER_NAME    = EARTH
REF_FRAME      = TEME
TIME_SYSTEM    = UTC
MEAN_ELEMENT_THEORY = SGP/SGP4

EPOCH          = 2026-03-06T06:00:02.000160
MEAN_MOTION    = 15.96419379
ECCENTRICITY   = .00011238
INCLINATION    = 97.2717
RA_OF_ASC_NODE = 357.3548
ARG_OF_PERICENTER = 115.0893
MEAN_ANOMALY   = 256.7898

EPHEMERIS_TYPE = 0
CLASSIFICATION_TYPE = U
NORAD_CAT_ID   = 67899
ELEMENT_SET_NO = 999
REV_AT_EPOCH   = 320
BSTAR          = -.28120957E-2
MEAN_MOTION_DOT = -.1163846E-1
MEAN_MOTION_DDOT = .41744358E-3

CCSDS_OMM_VERS = 2.0
CREATION_DATE  = 
ORIGINATOR     = 

OBJECT_NAME    = STARLINK-36361
OBJECT_ID      = 2026-035X
CENTER_NAME    = EARTH
REF_FRAME      = TEME
TIME_SYSTEM    = UTC
MEAN_ELEMENT_THEORY = SGP/SGP4

EPOCH          = 2026-03-06T06:00:02.000160
MEAN_MOTION    = 15.96489810
ECCENTRICITY   = .00011049
INCLINATION    = 97.2715
RA_OF_ASC_NODE = 357.3568
ARG_OF_PERICENTER = 109.8930
MEAN_ANOMALY   = 266.4909

EPHEMERIS_TYPE = 0
CLASSIFICATION_TYPE = U
NORAD_CAT_ID   = 67900
ELEMENT_SET_NO = 999
REV_AT_EPOCH   = 320
BSTAR          = -.28216317E-2
MEAN_MOTION_DOT = -.1172172E-1
MEAN_MOTION_DDOT = .42330605E-3

CCSDS_OMM_VERS = 2.0
CREATION_DATE  = 
ORIGINATOR     = 

OBJECT_NAME    = STARLINK-36336
OBJECT_ID      = 2026-035Y
CENTER_NAME    = EARTH
REF_FRAME      = TEME
TIME_SYSTEM    = UTC
MEAN_ELEMENT_THEORY = SGP/SGP4

EPOCH          = 2026-03-06T06:00:02.000160
MEAN_MOTION    = 15.96707789
ECCENTRICITY   = .00010085
INCLINATION    = 97.2724
RA_OF_ASC_NODE = 357.3630
ARG_OF_PERICENTER = 108.3066
MEAN_ANOMALY   = 281.7858

EPHEMERIS_TYPE = 0
CLASSIFICATION_TYPE = U
NORAD_CAT_ID   = 67901
ELEMENT_SET_NO = 999
REV_AT_EPOCH   = 325
BSTAR          = -.28001653E-2
MEAN_MOTION_DOT = -.1177021E-1
MEAN_MOTION_DDOT = .42754551E-3

CCSDS_OMM_VERS = 2.0
CREATION_DATE  = 
ORIGINATOR     = 

OBJECT_NAME    = STARLINK-36876
OBJECT_ID      = 2026-035Z
CENTER_NAME    = EARTH
REF_FRAME      = TEME
TIME_SYSTEM    = UTC
MEAN_ELEMENT_THEORY = SGP/SGP4

EPOCH          = 2026-03-06T06:00:02.000160
MEAN_MOTION    = 15.96559985
ECCENTRICITY   = .00010877
INCLINATION    = 97.2722
RA_OF_ASC_NODE = 357.3595
ARG_OF_PERICENTER = 113.4549
MEAN_ANOMALY   = 266.9451

EPHEMERIS_TYPE = 0
CLASSIFICATION_TYPE = U
NORAD_CAT_ID   = 67902
ELEMENT_SET_NO = 999
REV_AT_EPOCH   = 320
BSTAR          = -.27972418E-2
MEAN_MOTION_DOT = -.1166513E-1
MEAN_MOTION_DDOT = .41984481E-3

CCSDS_OMM_VERS = 2.0
CREATION_DATE  = 
ORIGINATOR     = 

OBJECT_NAME    = STARLINK-36257
OBJECT_ID      = 2026-035AA
CENTER_NAME    = EARTH
REF_FRAME      = TEME
TIME_SYSTEM    = UTC
MEAN_ELEMENT_THEORY = SGP/SGP4

EPOCH          = 2026-03-06T06:00:02.000160
MEAN_MOTION    = 15.96634025
ECCENTRICITY   = .00010013
INCLINATION    = 97.2721
RA_OF_ASC_NODE = 357.3602
ARG_OF_PERICENTER = 108.4497
MEAN_ANOMALY   = 276.1449

EPHEMERIS_TYPE = 0
CLASSIFICATION_TYPE = U
NORAD_CAT_ID   = 67903
ELEMENT_SET_NO = 999
REV_AT_EPOCH   = 325
BSTAR          = -.27889153E-2
MEAN_MOTION_DOT = -.1167695E-1
MEAN_MOTION_DDOT = .42096583E-3

CCSDS_OMM_VERS = 2.0
CREATION_DATE  = 
ORIGINATOR     = 

OBJECT_NAME    = STARLINK-36814
OBJECT_ID      = 2026-036A
CENTER_NAME    = EARTH
REF_FRAME      = TEME
TIME_SYSTEM    = UTC
MEAN_ELEMENT_THEORY = SGP/SGP4

EPOCH          = 2026-03-06T06:00:02.000160
MEAN_MOTION    = 15.81996579
ECCENTRICITY   = .00026216
INCLINATION    = 42.9993
RA_OF_ASC_NODE = 270.8897
ARG_OF_PERICENTER = 258.5452
MEAN_ANOMALY   = 161.3592

EPHEMERIS_TYPE = 0
CLASSIFICATION_TYPE = U
NORAD_CAT_ID   = 67904
ELEMENT_SET_NO = 999
REV_AT_EPOCH   = 309
BSTAR          = .10134016E-3
MEAN_MOTION_DOT = .20839E-3
MEAN_MOTION_DDOT = 0

CCSDS_OMM_VERS = 2.0
CREATION_DATE  = 
ORIGINATOR     = 

OBJECT_NAME    = STARLINK-36729
OBJECT_ID      = 2026-036B
CENTER_NAME    = EARTH
REF_FRAME      = TEME
TIME_SYSTEM    = UTC
MEAN_ELEMENT_THEORY = SGP/SGP4

EPOCH          = 2026-03-06T06:00:02.000160
MEAN_MOTION    = 15.82156578
ECCENTRICITY   = .00022124
INCLINATION    = 42.9997
RA_OF_ASC_NODE = 270.8781
ARG_OF_PERICENTER = 291.7484
MEAN_ANOMALY   = 132.3999

EPHEMERIS_TYPE = 0
CLASSIFICATION_TYPE = U
NORAD_CAT_ID   = 67905
ELEMENT_SET_NO = 999
REV_AT_EPOCH   = 309
BSTAR          = -.10423483E-2
MEAN_MOTION_DOT = -.216085E-2
MEAN_MOTION_DDOT = 0

CCSDS_OMM_VERS = 2.0
CREATION_DATE  = 
ORIGINATOR     = 

OBJECT_NAME    = STARLINK-36763
OBJECT_ID      = 2026-036C
CENTER_NAME    = EARTH
REF_FRAME      = TEME
TIME_SYSTEM    = UTC
MEAN_ELEMENT_THEORY = SGP/SGP4

EPOCH          = 2026-03-06T06:00:02.000160
MEAN_MOTION    = 15.82007387
ECCENTRICITY   = .00021353
INCLINATION    = 42.9996
RA_OF_ASC_NODE = 270.8670
ARG_OF_PERICENTER = 242.9078
MEAN_ANOMALY   = 185.5355

EPHEMERIS_TYPE = 0
CLASSIFICATION_TYPE = U
NORAD_CAT_ID   = 67906
ELEMENT_SET_NO = 999
REV_AT_EPOCH   = 309
BSTAR          = .32106035E-4
MEAN_MOTION_DOT = .6229E-4
MEAN_MOTION_DDOT = 0

CCSDS_OMM_VERS = 2.0
CREATION_DATE  = 
ORIGINATOR     = 

OBJECT_NAME    = STARLINK-36742
OBJECT_ID      = 2026-036D
CENTER_NAME    = EARTH
REF_FRAME      = TEME
TIME_SYSTEM    = UTC
MEAN_ELEMENT_THEORY = SGP/SGP4

EPOCH          = 2026-03-06T06:00:02.000160
MEAN_MOTION    = 15.82042288
ECCENTRICITY   = .00019548
INCLINATION    = 42.9998
RA_OF_ASC_NODE = 270.8563
ARG_OF_PERICENTER = 270.7980
MEAN_ANOMALY   = 161.9125

EPHEMERIS_TYPE = 0
CLASSIFICATION_TYPE = U
NORAD_CAT_ID   = 67907
ELEMENT_SET_NO = 999
REV_AT_EPOCH   = 309
BSTAR          = -.32472283E-3
MEAN_MOTION_DOT = -.68459E-3
MEAN_MOTION_DDOT = 0

CCSDS_OMM_VERS = 2.0
CREATION_DATE  = 
ORIGINATOR     = 

OBJECT_NAME    = STARLINK-36827
OBJECT_ID      = 2026-036E
CENTER_NAME    = EARTH
REF_FRAME      = TEME
TIME_SYSTEM    = UTC
MEAN_ELEMENT_THEORY = SGP/SGP4

EPOCH          = 2026-03-06T06:00:02.000160
MEAN_MOTION    = 15.82000884
ECCENTRICITY   = .00019458
INCLINATION    = 42.9994
RA_OF_ASC_NODE = 270.8461
ARG_OF_PERICENTER = 274.0805
MEAN_ANOMALY   = 162.9147

EPHEMERIS_TYPE = 0
CLASSIFICATION_TYPE = U
NORAD_CAT_ID   = 67908
ELEMENT_SET_NO = 999
REV_AT_EPOCH   = 309
BSTAR          = .1251075E-3
MEAN_MOTION_DOT = .25871E-3
MEAN_MOTION_DDOT = 0

CCSDS_OMM_VERS = 2.0
CREATION_DATE  = 
ORIGINATOR     = 

OBJECT_NAME    = STARLINK-36822
OBJECT_ID      = 2026-036F
CENTER_NAME    = EARTH
REF_FRAME      = TEME
TIME_SYSTEM    = UTC
MEAN_ELEMENT_THEORY = SGP/SGP4

EPOCH          = 2026-03-06T06:00:02.000160
MEAN_MOTION    = 15.82020205
ECCENTRICITY   = .00020911
INCLINATION    = 42.9995
RA_OF_ASC_NODE = 270.8357
ARG_OF_PERICENTER = 260.1859
MEAN_ANOMALY   = 181.0748

EPHEMERIS_TYPE = 0
CLASSIFICATION_TYPE = U
NORAD_CAT_ID   = 67909
ELEMENT_SET_NO = 999
REV_AT_EPOCH   = 309
BSTAR          = -.76390844E-4
MEAN_MOTION_DOT = -.16593E-3
MEAN_MOTION_DDOT = 0

